NORAD_CAT_ID,OBJECT_NAME,OBJECT_TYPE,EPOCH,MEAN_MOTION,ECCENTRICITY,INCLINATION,RA_OF_ASC_NODE,ARG_OF_PERICENTER,MEAN_ANOMALY,BSTAR,MEAN_MOTION_DOT,MEAN_MOTION_DDOT,TLE_LINE0,TLE_LINE1,TLE_LINE2,SEMIMAJOR_AXIS,PERIOD,APOGEE,PERIGEE,DECAYED
54066.0,STARLINK-5151,PAYLOAD,2024-07-30 09:25:49,15.08847523,0.0001316,53.2179,100.4904,98.1962,261.918,0.00023281,3.42e-05,0.0,0 STARLINK-5151,1 54066U 22136R   24212.39293337  .00003420  00000-0  23281-3 0  9993,2 54066  53.2179 100.4904 0001316  98.1962 261.9180 15.08847523 98663,6917.857,95.437,540.633,538.812,0.0
54066.0,STARLINK-5151,PAYLOAD,2024-07-30 17:22:46,15.08832979,0.0001442,53.2188,99.0006,86.4511,273.6646,4.7563e-05,4.69e-06,0.0,0 STARLINK-5151,1 54066U 22136R   24212.72414951  .00000469  00000-0  47563-4 0  9997,2 54066  53.2188  99.0006 0001442  86.4511 273.6646 15.08832979 98711,6917.902,95.438,540.764,538.769,0.0
54066.0,STARLINK-5151,PAYLOAD,2024-07-30 22:08:55,15.08838063,0.0001624,53.2189,98.1106,95.9303,264.1874,0.00010267,1.346e-05,0.0,0 STARLINK-5151,1 54066U 22136R   24212.92286649  .00001346  00000-0  10267-3 0  9995,2 54066  53.2189  98.1106 0001624  95.9303 264.1874 15.08838063 98267,6917.886,95.438,540.875,538.628,0.0
54066.0,STARLINK-5151,PAYLOAD,2024-07-31 09:16:36,15.08853241,0.0001223,53.217,96.0263,73.9603,286.1524,0.00016898,2.403e-05,0.0,0 STARLINK-5151,1 54066U 22136R   24213.38653359  .00002403  00000-0  16898-3 0  9993,2 54066  53.2170  96.0263 0001223  73.9603 286.1524 15.08853241 98814,6917.84,95.437,540.551,538.859,0.0
54066.0,STARLINK-5151,PAYLOAD,2024-07-31 20:24:19,15.08831363,0.000133,53.2182,93.9488,91.5517,268.5628,-3.3894e-06,-3.42e-06,0.0,0 STARLINK-5151,1 54066U 22136R   24213.85022669 -.00000342  00000-0 -33894-5 0  9998,2 54066  53.2182  93.9488 0001330  91.5517 268.5628 15.08831363 98888,6917.907,95.438,540.692,538.852,0.0
54066.0,STARLINK-5151,PAYLOAD,2024-07-31 21:59:42,15.08834809,0.0001465,53.2172,93.649,84.6416,275.4743,6.6872e-06,-1.82e-06,0.0,0 STARLINK-5151,1 54066U 22136R   24213.91646548 -.00000182  00000-0  66872-5 0  9996,2 54066  53.2172  93.6490 0001465  84.6416 275.4743 15.08834809 98419,6917.896,95.438,540.775,538.748,0.0
54066.0,STARLINK-5151,PAYLOAD,2024-08-01 09:07:23,15.0885157,0.0001434,53.2174,91.5681,85.7038,274.4118,0.00031325,4.702e-05,0.0,0 STARLINK-5151,1 54066U 22136R   24214.38013835  .00004702  00000-0  31325-3 0  9999,2 54066  53.2174  91.5681 0001434  85.7038 274.4118 15.08851570 98967,6917.845,95.437,540.702,538.718,0.0
54066.0,STARLINK-5151,PAYLOAD,2024-08-01 21:50:29,15.08847666,0.0001255,53.2159,89.1882,92.2646,267.849,0.00028689,4.282e-05,0.0,0 STARLINK-5151,1 54066U 22136R   24214.91006041  .00004282  00000-0  28689-3 0  9991,2 54066  53.2159  89.1882 0001255  92.2646 267.8490 15.08847666 99045,6917.857,95.437,540.59,538.854,0.0
54066.0,STARLINK-5151,PAYLOAD,2024-08-02 08:58:10,15.08855053,0.0001194,53.2147,87.1049,92.2135,267.8994,0.00061897,9.581e-05,0.0,0 STARLINK-5151,1 54066U 22136R   24215.37373553  .00009581  00000-0  61897-3 0  9992,2 54066  53.2147  87.1049 0001194  92.2135 267.8994 15.08855053 98632,6917.834,95.437,540.525,538.873,0.0
54066.0,STARLINK-5151,PAYLOAD,2024-08-02 21:41:16,15.08832383,0.0001259,53.2164,84.7289,84.567,275.5466,-6.0529e-05,-1.251e-05,0.0,0 STARLINK-5151,1 54066U 22136R   24215.90366378 -.00001251  00000-0 -60529-4 0  9998,2 54066  53.2164  84.7289 0001259  84.5670 275.5466 15.08832383 99193,6917.904,95.438,540.64,538.898,0.0
54066.0,STARLINK-5151,PAYLOAD,2024-08-03 08:48:58,15.08841853,0.0001575,53.2165,82.6453,92.0702,268.047,0.00091578,0.00014317,0.0,0 STARLINK-5151,1 54066U 22136R   24216.36734568  .00014317  00000-0  91578-3 0  9991,2 54066  53.2165  82.6453 0001575  92.0702 268.0470 15.08841853 99267,6917.875,95.437,540.829,538.65,0.0
54066.0,STARLINK-5151,PAYLOAD,2024-08-03 19:56:40,15.08840114,0.000177,53.2177,80.564,95.3779,264.7415,0.00057577,8.887e-05,0.0,0 STARLINK-5151,1 54066U 22136R   24216.83102892  .00008887  00000-0  57577-3 0  9998,2 54066  53.2177  80.5640 0001770  95.3779 264.7415 15.08840114 99331,6917.88,95.438,540.97,538.521,0.0
54066.0,STARLINK-5151,PAYLOAD,2024-08-03 21:32:03,15.08842693,0.0001736,53.2178,80.2667,95.5622,264.5568,0.0005667,8.743e-05,0.0,0 STARLINK-5151,1 54066U 22136R   24216.89726842  .00008743  00000-0  56670-3 0  9995,2 54066  53.2178  80.2667 0001736  95.5622 264.5568 15.08842693 98867,6917.872,95.437,540.938,538.536,0.0
54066.0,STARLINK-5151,PAYLOAD,2024-08-04 15:01:18,15.0885293,0.0001699,53.2179,76.9968,91.2261,268.8926,0.00055236,8.517e-05,0.0,0 STARLINK-5151,1 54066U 22136R   24217.62590565  .00008517  00000-0  55236-3 0  9994,2 54066  53.2179  76.9968 0001699  91.2261 268.8926 15.08852930 98976,6917.841,95.437,540.881,538.531,0.0
54066.0,STARLINK-5151,PAYLOAD,2024-08-04 21:22:50,15.0885563,0.0001677,53.2178,75.8087,86.4364,273.682,0.00055821,8.611e-05,0.0,0 STARLINK-5151,1 54066U 22136R   24217.89086430  .00008611  00000-0  55821-3 0  9999,2 54066  53.2178  75.8087 0001677  86.4364 273.6820 15.08855630 99496,6917.833,95.437,540.858,538.537,0.0
54066.0,STARLINK-5151,PAYLOAD,2024-08-05 19:38:14,15.08839341,0.0001148,53.216,71.6351,99.2408,260.8714,4.7498e-05,4.68e-06,0.0,0 STARLINK-5151,1 54066U 22136R   24218.81822640  .00000468  00000-0  47498-4 0  9997,2 54066  53.2160  71.6351 0001148  99.2408 260.8714 15.08839341 99636,6917.882,95.438,540.542,538.953,0.0
54066.0,STARLINK-5151,PAYLOAD,2024-08-05 21:13:38,15.08831429,0.0001232,53.2165,71.3447,86.946,273.1673,-0.00013685,-2.465e-05,0.0,0 STARLINK-5151,1 54066U 22136R   24218.88446984 -.00002465  00000-0 -13685-3 0  9998,2 54066  53.2165  71.3447 0001232  86.9460 273.1673 15.08831429 99167,6917.907,95.438,540.624,538.919,0.0
54066.0,STARLINK-5151,PAYLOAD,2024-08-06 13:07:29,15.08831998,0.0001202,53.2167,68.3713,91.5479,268.5651,-5.4534e-05,-1.155e-05,0.0,0 STARLINK-5151,1 54066U 22136R   24219.54687249 -.00001155  00000-0 -54534-4 0  9997,2 54066  53.2167  68.3713 0001202  91.5479 268.5651 15.08831998 99749,6917.905,95.438,540.601,538.938,0.0
54066.0,STARLINK-5151,PAYLOAD,2024-08-06 19:29:02,15.08840834,0.0001245,53.2163,67.1829,93.3865,266.727,0.00014302,1.989e-05,0.0,0 STARLINK-5151,1 54066U 22136R   24219.81182999  .00001989  00000-0  14302-3 0  9990,2 54066  53.2163  67.1829 0001245  93.3865 266.7270 15.08840834 99304,6917.878,95.438,540.604,538.882,0.0
54066.0,STARLINK-5151,PAYLOAD,2024-08-07 20:55:12,15.08847113,0.0001156,53.2164,62.4255,99.398,260.7143,0.00036211,5.481e-05,0.0,0 STARLINK-5151,1 54066U 22136R   24220.87166977  .00005481  00000-0  36211-3 0  9990,2 54066  53.2164  62.4255 0001156  99.3980 260.7143 15.08847113 99941,6917.859,95.437,540.523,538.924,0.0
54066.0,STARLINK-5151,PAYLOAD,2024-08-08 20:45:59,15.08847442,0.0001285,53.2172,57.9674,76.2993,283.8142,0.00018827,2.71e-05,0.0,0 STARLINK-5151,1 54066U 22136R   24221.86526905  .00002710  00000-0  18827-3 0  9996,2 54066  53.2172  57.9674 0001285  76.2993 283.8142 15.08847442100094,6917.858,95.437,540.612,538.834,0.0
54066.0,STARLINK-5151,PAYLOAD,2024-08-08 22:21:22,15.08847456,0.0001155,53.2168,57.6695,80.7107,279.4015,0.00017471,2.494e-05,0.0,0 STARLINK-5151,1 54066U 22136R   24221.93150806  .00002494  00000-0  17471-3 0  9990,2 54066  53.2168  57.6695 0001155  80.7107 279.4015 15.08847456 99623,6917.858,95.437,540.522,538.924,0.0
54066.0,STARLINK-5151,PAYLOAD,2024-08-09 12:39:50,15.0882921,0.0001286,53.2178,54.9925,70.6591,289.454,-0.00019136,-3.331e-05,0.0,0 STARLINK-5151,1 54066U 22136R   24222.52767341 -.00003331  00000-0 -19136-3 0  9997,2 54066  53.2178  54.9925 0001286  70.6591 289.4540 15.08829210100197,6917.913,95.438,540.668,538.889,0.0
54066.0,STARLINK-5151,PAYLOAD,2024-08-09 22:12:09,15.08845729,0.0001278,53.2186,53.206,83.5811,276.5327,0.00014272,1.985e-05,0.0,0 STARLINK-5151,1 54066U 22136R   24222.92510977  .00001985  00000-0  14272-3 0  9999,2 54066  53.2186  53.2060 0001278  83.5811 276.5327 15.08845729 99771,6917.863,95.437,540.612,538.844,0.0
54066.0,STARLINK-5151,PAYLOAD,2024-08-10 18:52:10,15.08840815,0.0001228,53.2182,49.3396,87.9774,272.1358,0.00011627,1.563e-05,0.0,0 STARLINK-5151,1 54066U 22136R   24223.78623203  .00001563  00000-0  11627-3 0  9994,2 54066  53.2182  49.3396 0001228  87.9774 272.1358 15.08840815100383,6917.878,95.438,540.592,538.893,0.0
54066.0,STARLINK-5151,PAYLOAD,2024-08-11 18:42:57,15.08840882,0.0001863,53.2153,44.8811,88.7942,271.3264,0.00023692,3.485e-05,0.0,0 STARLINK-5151,1 54066U 22136R   24224.77983536  .00003485  00000-0  23692-3 0  9992,2 54066  53.2153  44.8811 0001863  88.7942 271.3264 15.08840882100059,6917.878,95.437,541.031,538.454,0.0
54066.0,STARLINK-5151,PAYLOAD,2024-08-12 12:12:11,15.08853552,3.9e-05,53.2174,41.6086,47.3248,312.7777,0.00049522,7.605e-05,0.0,0 STARLINK-5151,1 54066U 22136R   24225.50847195  .00007605  00000-0  49522-3 0  9992,2 54066  53.2174  41.6086 0000390  47.3248 312.7777 15.08853552100647,6917.839,95.437,539.974,539.434,0.0
54066.0,STARLINK-5151,PAYLOAD,2024-08-12 21:44:30,15.0886744,0.0001554,53.2159,39.8258,97.1319,262.985,0.00098456,0.00015428,0.0,0 STARLINK-5151,1 54066U 22136R   24225.90590751  .00015428  00000-0  98456-3 0  9991,2 54066  53.2159  39.8258 0001554  97.1319 262.9850 15.08867440100228,6917.797,95.436,540.737,538.586,0.0
54066.0,STARLINK-5151,PAYLOAD,2024-08-13 12:02:58,15.08844493,0.0001703,53.2177,37.1458,101.9242,258.1941,0.00014759,2.062e-05,0.0,0 STARLINK-5151,1 54066U 22136R   24226.50207014  .00002062  00000-0  14759-3 0  9999,2 54066  53.2177  37.1458 0001703 101.9242 258.1941 15.08844493100799,6917.867,95.437,540.91,538.554,0.0
54066.0,STARLINK-5151,PAYLOAD,2024-08-13 18:24:31,15.08817142,0.000132,53.213,35.9577,67.2092,292.9039,-0.00057409,-9.407e-05,0.0,0 STARLINK-5151,1 54066U 22136R   24226.76703646 -.00009407  00000-0 -57409-3 0  9990,2 54066  53.2130  35.9577 0001320  67.2092 292.9039 15.08817142100838,6917.95,95.439,540.728,538.902,0.0
